MEAN_MOTION;ECCENTRICITY;INCLINATION;RA_OF_ASC_NODE;ARG_OF_PERICENTER;MEAN_ANOMALY;BSTAR;MEAN_MOTION_DOT;MEAN_MOTION_DDOT;TYPE
0.98435202;0.0010676;12.7468;29.348;285.8368;285.3493;0;-1.57E-6;0;Intelsat
0.9843554;0.0010651;12.7476;29.34;285.9247;258.2662;0;-1.83E-6;0;Intelsat
0.98435839;0.0010629;12.7486;29.3309;286.0061;277.8155;0;-2.11E-6;0;Intelsat
0.98436028;0.0010614;12.7494;29.3229;286.0714;249.5183;0;-2.31E-6;0;Intelsat
0.98436021;0.0010613;12.7495;29.3224;286.0742;270.7357;0;-2.32E-6;0;Intelsat
0.98436137;0.00106;12.7503;29.3144;286.1439;245.1398;0;-2.46E-6;0;Intelsat
0.98436118;0.0010598;12.7504;29.314;286.1502;263.1121;0;-2.47E-6;0;Intelsat
0.98436126;0.0010587;12.7513;29.3054;286.2624;259.6534;0;-2.55E-6;0;Intelsat
0.98436135;0.0010585;12.7513;29.305;286.2479;278.7039;0;-2.56E-6;0;Intelsat
0.98436024;0.0010583;12.7522;29.2968;286.3309;261.7388;0;-2.57E-6;0;Intelsat
0.98435778;0.0010579;12.7531;29.2884;286.3857;257.3802;0;-2.5E-6;0;Intelsat
0.98435445;0.0010571;12.754;29.2793;286.5294;279.2866;0;-2.35E-6;0;Intelsat
0.98435055;0.0010567;12.7548;29.2715;286.6583;248.5106;0;-2.16E-6;0;Intelsat
0.98435025;0.0010566;12.7549;29.271;286.6748;270.5676;0;-2.15E-6;0;Intelsat
0.98434554;0.0010555;12.7558;29.2625;286.8571;269.3786;0;-1.89E-6;0;Intelsat
0.98434024;0.0010551;12.7568;29.2541;286.9998;264.9424;0;-1.59E-6;0;Intelsat
0.98433758;0.0010541;12.7572;29.2499;287.1337;82.6656;0;-1.44E-6;0;Intelsat
0.98433528;0.0010539;12.7577;29.2457;287.2341;260.409;0;-1.28E-6;0;Intelsat
0.98433211;0.0010533;12.7583;29.2399;287.3847;148.7173;0;-1.06E-6;0;Intelsat
0.98433045;0.0010527;12.7586;29.2368;287.5011;281.916;0;-9.4E-7;0;Intelsat
0.98432866;0.0010515;12.759;29.2331;287.6242;78.8208;0;-8.0E-7;0;Intelsat
0.98432677;0.0010512;12.7595;29.229;287.676;254.7236;0;-6.6E-7;0;Intelsat
0.98432324;0.0010488;12.7604;29.2204;287.932;262.1908;0;-3.8E-7;0;Intelsat
0.98432283;0.0010484;12.7605;29.2195;287.9776;300.342;0;-3.5E-7;0;Intelsat
0.98432097;0.0010457;12.7614;29.2119;288.2;267.5459;0;-1.6E-7;0;Intelsat
0.98431966;0.001041;12.7623;29.2036;288.4865;262.9444;0;0;0;Intelsat
0.98431938;0.0010396;12.7627;29.1995;288.6272;80.6503;0;5.0E-8;0;Intelsat
0.98431991;0.001037;12.7632;29.1954;288.7389;258.3685;0;8.0E-8;0;Intelsat
0.98432142;0.0010332;12.7641;29.1872;288.9813;253.8278;0;9.0E-8;0;Intelsat
0.98432253;0.0010298;12.7648;29.1804;289.1901;186.8452;0;5.0E-8;0;Intelsat
0.98432338;0.0010284;12.765;29.179;289.2203;249.2756;0;3.0E-8;0;Intelsat
0.98432711;0.0010233;12.7659;29.1704;289.443;260.7761;0;-1.1E-7;0;Intelsat
0.9843315;0.0010194;12.7668;29.1626;289.6109;240.261;0;-2.9E-7;0;Intelsat
0.98433187;0.0010191;12.7669;29.162;289.6046;265.617;0;-3.0E-7;0;Intelsat
0.98433609;0.0010147;12.7677;29.1537;289.7016;261.2065;0;-5.4E-7;0;Intelsat
0.98434115;0.0010101;12.7687;29.1451;289.8207;272.7449;0;-8.2E-7;0;Intelsat
0.98434575;0.0010056;12.7696;29.1366;289.9229;273.1876;0;-1.11E-6;0;Intelsat
0.98434914;0.0010017;12.7704;29.1287;290.0026;247.9959;0;-1.38E-6;0;Intelsat
0.98435287;0.0009978;12.7713;29.12;290.0344;258.1776;0;-1.66E-6;0;Intelsat
0.98435367;0.0009973;12.7715;29.1182;290.0045;335.6025;0;-1.71E-6;0;Intelsat
0.98435658;0.0009922;12.7728;29.1055;290.0404;155.1698;0;-2.03E-6;0;Intelsat
0.98435734;0.0009905;12.773;29.103;290.0713;260.4103;0;-2.08E-6;0;Intelsat
0.98435806;0.0009863;12.7746;29.0881;290.0516;176.6069;0;-2.28E-6;0;Intelsat
0.98435802;0.0009855;12.7748;29.086;290.0674;266.5145;0;-2.29E-6;0;Intelsat
0.98435706;0.0009833;12.7757;29.0777;290.0842;265.8029;0;-2.3E-6;0;Intelsat
0.98435485;0.0009815;12.7766;29.0692;290.1249;268.2592;0;-2.24E-6;0;Intelsat
0.98435196;0.00098;12.7775;29.0608;290.1901;273.5651;0;-2.13E-6;0;Intelsat
0.98434902;0.0009794;12.7784;29.0526;290.2367;265.9738;0;-1.98E-6;0;Intelsat
0.98434612;0.0009768;12.779;29.0464;290.3095;171.4661;0;-1.83E-6;0;Intelsat
0.98434538;0.0009762;12.7792;29.0445;290.3604;255.3795;0;-1.78E-6;0;Intelsat
0.98434182;0.0009751;12.7801;29.0361;290.4775;257.6396;0;-1.56E-6;0;Intelsat
0.98433762;0.0009729;12.781;29.0278;290.638;256.7739;0;-1.31E-6;0;Intelsat
0.98433361;0.0009713;12.7821;29.0174;290.8194;348.364;0;-9.9E-7;0;Intelsat
0.98433123;0.0009706;12.7827;29.0111;290.9091;262.9859;0;-8.0E-7;0;Intelsat
0.98432846;0.0009682;12.7836;29.0029;291.0801;258.5155;0;-5.7E-7;0;Intelsat
0.98432645;0.0009663;12.7844;28.9953;291.2696;228.1373;0;-3.8E-7;0;Intelsat
0.98432646;0.0009661;12.7845;28.9947;291.2805;253.9779;0;-3.7E-7;0;Intelsat
0.98432512;0.0009628;12.7853;28.9865;291.477;249.4924;0;-2.0E-7;0;Intelsat
0.98432453;0.0009589;12.7863;28.9775;291.6884;282.4725;0;-7.0E-8;0;Intelsat
0.98432425;0.0009558;12.7868;28.9729;291.8203;122.9137;0;-2.0E-8;0;Intelsat
0.98432622;0.000949;12.7881;28.9607;292.0476;294.5576;0;1.0E-8;0;Intelsat
0.98432839;0.0009441;12.7889;28.9521;292.2063;308.7134;0;-4.0E-8;0;Intelsat
0.98433057;0.0009401;12.7897;28.9451;292.3206;254.4435;0;-1.3E-7;0;Intelsat
0.98433144;0.000939;12.7899;28.9427;292.3115;359.7402;0;-1.7E-7;0;Intelsat
0.9843345;0.0009343;12.7906;28.9362;292.4213;283.8986;0;-3.1E-7;0;Intelsat
0.98433804;0.0009296;12.7913;28.9287;292.5313;248.8464;0;-5.0E-7;0;Intelsat
0.98434193;0.0009236;12.7922;28.9201;292.5791;258.3864;0;-7.6E-7;0;Intelsat
0.98434649;0.0009187;12.793;28.9117;292.6222;260.2471;0;-1.05E-6;0;Intelsat
0.98435065;0.0009143;12.7939;28.9034;292.6325;255.9225;0;-1.34E-6;0;Intelsat
0.98435456;0.0009082;12.7947;28.8951;292.609;251.6311;0;-1.64E-6;0;Intelsat
0.98435765;0.0009036;12.7955;28.8863;292.5474;268.1569;0;-1.93E-6;0;Intelsat
0.98436028;0.0009007;12.7963;28.878;292.4977;261.5215;0;-2.17E-6;0;Intelsat
0.98436194;0.0008966;12.7972;28.8696;292.3934;262.2984;0;-2.35E-6;0;Intelsat
0.98436194;0.0008966;12.7972;28.8696;292.3934;262.2984;0;-2.36E-6;0;Intelsat
0.98436249;0.0008947;12.798;28.8613;292.335;260.0866;0;-2.48E-6;0;Intelsat
0.98436209;0.0008935;12.7988;28.8527;292.2731;267.2878;0;-2.54E-6;0;Intelsat
0.98436016;0.0008887;12.7997;28.8447;292.1994;253.5139;0;-2.52E-6;0;Intelsat
0.98435706;0.0008872;12.8005;28.836;292.1565;268.1171;0;-2.41E-6;0;Intelsat
0.98435368;0.0008849;12.8013;28.8281;292.13;253.6652;0;-2.25E-6;0;Intelsat
0.98434914;0.0008868;12.8021;28.8197;292.1795;257.8383;0;-2.02E-6;0;Intelsat
0.98434424;0.0008856;12.8029;28.8113;292.236;259.7482;0;-1.75E-6;0;Intelsat
0.98434201;0.0008843;12.8032;28.8078;292.2778;52.2063;0;-1.62E-6;0;Intelsat
0.98433923;0.0008838;12.8037;28.8031;292.2963;255.3777;0;-1.44E-6;0;Intelsat
0.98433389;0.0008819;12.8045;28.7949;292.3635;251.0104;0;-1.13E-6;0;Intelsat
0.98432996;0.0008796;12.8053;28.7867;292.4563;246.5961;0;-8.2E-7;0;Intelsat
0.98432579;0.0008768;12.8062;28.7784;292.5596;242.196;0;-5.3E-7;0;Intelsat
0.98432282;0.0008722;12.807;28.7696;292.6628;263.1312;0;-2.7E-7;0;Intelsat
0.98432257;0.0008715;12.8073;28.7679;292.6777;335.5241;0;-2.2E-7;0;Intelsat
0.98432091;0.0008688;12.8079;28.7614;292.755;258.7208;0;-8.0E-8;0;Intelsat
0.98432044;0.0008651;12.8087;28.7533;292.8688;254.3144;0;4.0E-8;0;Intelsat
0.98432122;0.0008611;12.8095;28.7451;292.9787;249.875;0;1.0E-7;0;Intelsat
0.98432295;0.0008569;12.8104;28.7369;293.0737;245.4579;0;7.0E-8;0;Intelsat
0.98432598;0.0008532;12.8112;28.7283;293.1683;258.1638;0;-2.0E-8;0;Intelsat
0.98432982;0.0008473;12.812;28.72;293.1844;262.0573;0;-1.9E-7;0;Intelsat
0.98433855;0.0008351;12.8137;28.7034;293.1099;253.5098;0;-6.5E-7;0;Intelsat
0.98434352;0.0008296;12.8144;28.6952;293.0499;249.2497;0;-9.3E-7;0;Intelsat
0.98434782;0.000825;12.8152;28.6868;292.9809;245.0105;0;-1.21E-6;0;Intelsat
0.98434782;0.000825;12.8152;28.6868;292.9809;245.0105;0;-1.21E-6;0;Intelsat
0.98435176;0.0008215;12.816;28.6785;292.8896;240.7982;0;-1.49E-6;0;Intelsat
0.98435444;0.0008173;12.8168;28.6702;292.7465;236.6534;0;-1.74E-6;0;Intelsat
0.98435679;0.0008141;12.8176;28.6618;292.5686;232.5245;0;-1.96E-6;0;Intelsat
0.98435695;0.0008137;12.8177;28.6612;292.5543;257.8889;0;-1.97E-6;0;Intelsat
0.98435829;0.0008138;12.8181;28.657;292.4832;75.8381;0;-2.06E-6;0;Intelsat
0.9843587;0.0008091;12.8193;28.6445;292.2377;249.5997;0;-2.24E-6;0;Intelsat
0.9843586;0.0008091;12.8193;28.6439;292.2402;273.9787;0;-2.25E-6;0;Intelsat
0.98435832;0.000807;12.8201;28.6362;292.0621;245.4941;0;-2.29E-6;0;Intelsat
0.98435798;0.0008057;12.8205;28.632;291.9216;63.3985;0;-2.29E-6;0;Intelsat
0.98435557;0.0008043;12.8213;28.6237;291.7839;59.3208;0;-2.25E-6;0;Intelsat
0.98435266;0.0008019;12.8221;28.6149;291.5643;80.5937;0;-2.14E-6;0;Intelsat
0.9843497;0.0008009;12.8229;28.6065;291.4629;76.4024;0;-2.0E-6;0;Intelsat
0.98434837;0.000801;12.8232;28.6034;291.4124;214.1357;0;-1.93E-6;0;Intelsat
0.98434664;0.0008002;12.8236;28.5987;291.3733;55.3869;0;-1.82E-6;0;Intelsat
0.98434222;0.000799;12.8244;28.59;291.298;67.9676;0;-1.59E-6;0;Intelsat
0.98433879;0.0007981;12.8252;28.5817;291.2521;63.6779;0;-1.35E-6;0;Intelsat
0.98433493;0.000797;12.8261;28.5728;291.2528;84.7398;0;-1.09E-6;0;Intelsat
0.98433335;0.0007969;12.8265;28.5687;291.2393;262.597;0;-9.7E-7;0;Intelsat
0.98432902;0.0007937;12.8276;28.5562;291.2741;76.1134;0;-6.2E-7;0;Intelsat
0.98432733;0.0007914;12.8284;28.548;291.2529;66.9589;0;-4.2E-7;0;Intelsat
0.98432603;0.0007902;12.8289;28.5425;291.2471;297.0411;0;-3.0E-7;0;Intelsat
0.98432517;0.0007878;12.8297;28.5342;291.2875;290.9234;0;-1.6E-7;0;Intelsat
0.9843246;0.0007868;12.83;28.5311;291.3529;65.1919;0;-1.2E-7;0;Intelsat
0.98432515;0.0007833;12.8309;28.5223;291.349;84.1347;0;-4.0E-8;0;Intelsat
0.98432625;0.0007802;12.8317;28.5143;291.3418;67.6268;0;-2.0E-8;0;Intelsat
0.98432832;0.0007769;12.8325;28.5059;291.3454;67.7388;0;-6.0E-8;0;Intelsat
0.98433079;0.0007733;12.8333;28.4973;291.3421;71.196;0;-1.6E-7;0;Intelsat
0.98433229;0.0007708;12.8338;28.4927;291.3213;267.6285;0;-2.4E-7;0;Intelsat
0.98433768;0.0007652;12.8349;28.4806;291.1633;62.7449;0;-5.2E-7;0;Intelsat
0.98434226;0.0007597;12.8357;28.4715;290.8905;84.0481;0;-7.8E-7;0;Intelsat
0.9843462;0.0007553;12.8365;28.4631;290.7023;79.9485;0;-1.06E-6;0;Intelsat
0.98435058;0.0007515;12.8373;28.4546;290.4814;75.8638;0;-1.35E-6;0;Intelsat
